{"type": "Feature", "properties": {"sourceWay": "1091198031", "surface": "asphalt", "displayOnly": true}, "geometry": {"type": "MultiPolygon", "coordinates": [[[[77.59019615355201, 12.975458840629198], [77.59019592821683, 12.975458850187877], [77.590196046991, 12.975461508901981], [77.59019653219528, 12.975460695559919], [77.59019653219528, 12.97546069555992], [77.5902105165531, 12.975437253750004], [77.59021051655311, 12.975437253750002], [77.59021051655311, 12.975437253749998], [77.59021104295395, 12.975437079305005], [77.59023200188138, 12.975430133685197], [77.5902254, 12.9754288540424], [77.59021411095542, 12.975431042198133], [77.59020454056555, 12.975437273538452], [77.59019814583547, 12.97544659939828], [77.59019590030489, 12.975457599999999], [77.59019615355201, 12.975458840629198]]], [[[77.59020000639174, 12.975550138564696], [77.59022469600711, 12.97549388739487], [77.59022469524757, 12.975493886518022], [77.59020543416587, 12.975471650762822], [77.59020855766293, 12.975475256670128], [77.59022210337494, 12.975490894456545], [77.59019888427852, 12.975525020492013], [77.59020000639174, 12.975550138564696]]]]}}
