{"type": "FeatureCollection", "features": [{"type": "Feature", "properties": {"osm": "way/52057928", "role": "retained-outside-ground"}, "geometry": {"type": "MultiPolygon", "coordinates": [[[[77.59016351456204, 12.975516042619272], [77.5901406333299, 12.975549672095907], [77.59014255670768, 12.975550914727535], [77.59014381237502, 12.975549069157056], [77.59014404989357, 12.97554867100769], [77.59016351456204, 12.975516042619272]]], [[[77.59020855766293, 12.975475256670128], [77.59022210337494, 12.975490894456545], [77.59017712223962, 12.975557005027477], [77.59017070798541, 12.975566432311627], [77.5901707077951, 12.975566432898887], [77.59017070489011, 12.975566441863217], [77.59017070489008, 12.975566441863208], [77.5901707046066, 12.97556644273798], [77.59017070460567, 12.975566442740949], [77.59016999392159, 12.975568641016084], [77.59017136667009, 12.975569527904097], [77.59022365195365, 12.975492682098276], [77.59020543416587, 12.975471650762822], [77.59020855766293, 12.975475256670128]]]]}}, {"type": "Feature", "properties": {"osm": "way/52057928", "role": "retained-outside-ground"}, "geometry": {"type": "MultiPolygon", "coordinates": [[[[77.59017070798541, 12.975566432311627], [77.5901707077951, 12.975566432898887], [77.59017070489011, 12.975566441863217], [77.59017070489008, 12.975566441863208], [77.5901707046066, 12.97556644273798], [77.59017070460567, 12.975566442740949], [77.59016874905429, 12.975572491617113], [77.59016903714652, 12.975572304038469], [77.59017303385282, 12.975566475376077], [77.59017404328266, 12.975561530292858], [77.59017072310508, 12.97556641008965], [77.59017070798541, 12.975566432311627]]], [[[77.59014647173225, 12.975544611308743], [77.59014296285346, 12.975546895961532], [77.59013896614717, 12.975552724623926], [77.59013847873659, 12.97555511239348], [77.59013970074949, 12.97555511239348], [77.59014381237502, 12.975549069157056], [77.59014398518528, 12.975548779477377], [77.59014647173225, 12.975544611308743]]]]}}, {"type": "Feature", "properties": {"osm": "way/52057928", "role": "retained-outside-ground"}, "geometry": {"type": "MultiPolygon", "coordinates": [[[[77.5901384145196, 12.975554202108553], [77.59013812026127, 12.97555511239348], [77.59013970074949, 12.97555511239348], [77.59013998403582, 12.975554696021364], [77.59013999087264, 12.975554685972652], [77.5901384145196, 12.975554202108553]]], [[[77.59013521635458, 12.975564095597337], [77.59011427006875, 12.975628892719678], [77.59011629647043, 12.97563010946877], [77.5901215207482, 12.975613947194015], [77.590137634727, 12.975564095597337], [77.59013521635458, 12.975564095597337]]], [[[77.59017070798541, 12.975566432311627], [77.5901707077951, 12.975566432898887], [77.59017070489011, 12.975566441863217], [77.59017070489008, 12.975566441863208], [77.5901707046066, 12.97556644273798], [77.59017070460567, 12.975566442740949], [77.59016840918162, 12.975573542905122], [77.59014569452894, 12.975643797627749], [77.590146301772, 12.975644017582736], [77.59014787150355, 12.975644543816697], [77.59017358548039, 12.975564997891446], [77.59017201247308, 12.97556451505433], [77.59017072268989, 12.97556641069987], [77.59017070798541, 12.975566432311627]]]]}}, {"type": "Feature", "properties": {"osm": "way/52057928", "role": "retained-outside-ground"}, "geometry": {"type": "MultiPolygon", "coordinates": [[[[77.59017070798541, 12.975566432311627], [77.5901707077951, 12.975566432898887], [77.59017070489011, 12.975566441863217], [77.59017070489008, 12.975566441863208], [77.5901707046066, 12.97556644273798], [77.59017070460567, 12.975566442740949], [77.59016874905429, 12.975572491617113], [77.59016903714652, 12.975572304038469], [77.59017303385282, 12.975566475376077], [77.59017404328266, 12.975561530292858], [77.59017072310508, 12.97556641008965], [77.59017070798541, 12.975566432311627]]], [[[77.59014647173225, 12.975544611308743], [77.59014296285346, 12.975546895961532], [77.59013896614717, 12.975552724623926], [77.59013847873659, 12.97555511239348], [77.59013970074949, 12.97555511239348], [77.59014381237502, 12.975549069157056], [77.59014398518528, 12.975548779477377], [77.59014647173225, 12.975544611308743]]]]}}, {"type": "Feature", "properties": {"osm": "way/52059625", "role": "retained-outside-ground"}, "geometry": {"type": "MultiPolygon", "coordinates": [[[[77.5901236523556, 12.975564095597337], [77.59012255477677, 12.975567105825476], [77.5901225255357, 12.975567186016296], [77.59012234365741, 12.975567684800575], [77.59013405611026, 12.975567684800575], [77.59013521635458, 12.975564095597337], [77.59012690059188, 12.975564095597337], [77.5901236523556, 12.975564095597337]]], [[[77.59013979544798, 12.975551515199426], [77.59012819537756, 12.975551515199426], [77.59012703942824, 12.975554726676082], [77.59012690059188, 12.97555511239348], [77.59013763472703, 12.97555511239348], [77.59013812026127, 12.97555511239348], [77.5901384145196, 12.975554202108553], [77.59013864980862, 12.975554274330895], [77.59013896614717, 12.975552724623926], [77.59013979544798, 12.975551515199426]]]]}}, {"type": "Feature", "properties": {"osm": "way/52059625", "role": "retained-outside-ground"}, "geometry": {"type": "MultiPolygon", "coordinates": [[[[77.59011730525654, 12.975554628203327], [77.59011820177963, 12.975552138118868], [77.59011835960541, 12.9755516999369], [77.5901184258969, 12.975551515887469], [77.59004796546579, 12.975551540463831], [77.59004878973586, 12.975553548982617], [77.59004948820723, 12.975555136787545], [77.59011386483641, 12.975555114589126], [77.5901171305348, 12.975555113491302], [77.59011730525654, 12.975554628203327]]], [[[77.59005374963479, 12.975564118523119], [77.59005388225133, 12.975564383301212], [77.59005565209443, 12.975567707384947], [77.5901125592394, 12.975567687535927], [77.5901138565894, 12.975564129678315], [77.59011386821616, 12.975564097792976], [77.59005374963479, 12.975564118523119]]]]}}, {"type": "Feature", "properties": {"osm": "way/1091198031", "role": "retained-outside-ground"}, "geometry": {"type": "MultiPolygon", "coordinates": [[[[77.590196046991, 12.975461508901981], [77.5901976773261, 12.975458775990969], [77.59019592821683, 12.975458850187877], [77.590196046991, 12.975461508901981]]], [[[77.59020855766293, 12.975475256670128], [77.59022210337494, 12.975490894456545], [77.59019888427852, 12.975525020492013], [77.59020000639174, 12.975550138564696], [77.59022469600711, 12.97549388739487], [77.59022469524757, 12.975493886518022], [77.59020543416587, 12.975471650762822], [77.59020855766293, 12.975475256670128]]]]}}, {"type": "Feature", "properties": {"osm": "way/1091198031", "role": "retained-outside-ground"}, "geometry": {"type": "MultiPolygon", "coordinates": [[[[77.5902167032082, 12.975484660258276], [77.59021670327758, 12.975484660271727], [77.59020543417006, 12.975471650767657], [77.5902167032082, 12.975484660258276]]], [[[77.59019814583547, 12.97544659939828], [77.59019590030489, 12.975457599999999], [77.59019653219528, 12.97546069555992], [77.5902105165531, 12.975437253750004], [77.59021051655311, 12.975437253750002], [77.59021051655311, 12.975437253749998], [77.59021104295395, 12.975437079305005], [77.59023200188138, 12.975430133685197], [77.5902254, 12.9754288540424], [77.59021411095542, 12.975431042198133], [77.59020454056555, 12.975437273538452], [77.59019814583547, 12.97544659939828]]]]}}, {"type": "Feature", "properties": {"osm": "way/1370351127", "role": "retained-outside-ground"}, "geometry": {"type": "MultiPolygon", "coordinates": [[[[77.59010995448982, 12.97556409914251], [77.59009218815373, 12.975612822806589], [77.59009376013557, 12.975614177321722], [77.59009518194885, 12.97561534312427], [77.59011152639687, 12.975570520012862], [77.59011386821616, 12.975564097792976], [77.59010995448982, 12.97556409914251]]], [[[77.5901236523556, 12.975564095597337], [77.59012255477677, 12.975567105825476], [77.59011356642151, 12.97559175555197], [77.59010280985062, 12.97562125444191], [77.5901033077681, 12.9756216236081], [77.59010591849916, 12.97562346245843], [77.59012756571381, 12.975564095597337], [77.59012690059188, 12.975564095597337], [77.5901236523556, 12.975564095597337]]]]}}, {"type": "Feature", "properties": {"osm": "way/1370351127", "role": "retained-outside-ground"}, "geometry": {"type": "MultiPolygon", "coordinates": [[[[77.59016357480773, 12.97546410360706], [77.59016008769103, 12.975462911454267], [77.59012818452007, 12.975551545363883], [77.59012690059188, 12.97555511239348], [77.59013080829254, 12.97555511239348], [77.59016357480773, 12.97546410360706]]], [[[77.59011730525654, 12.975554628203327], [77.59011820177963, 12.975552138118868], [77.59011957911937, 12.975548314120852], [77.59015140845246, 12.975459944252588], [77.5901479169139, 12.975458750588086], [77.59011322224444, 12.975555114810707], [77.59011386483641, 12.975555114589126], [77.5901171305348, 12.975555113491302], [77.59011730525654, 12.975554628203327]]]]}}]}
