{"type":"FeatureCollection","features":[{"type":"Feature","properties":{"loop":2,"family":"rounded island offset, fine bounded adjustment","offsetM":3,"lengthM":164.35568420080284,"minimumCircularRadiusM":5.1,"adjustmentXYM":[-0.5,0.7],"outsideGroundM2":0.0,"bodySamples":658,"failedBodySamples":0,"maximumBodyOutsideGroundM2":0,"denseBodySamples":1644,"bodyPosesOutsideAsphaltOrMarking":0,"bodyPosesOutsideOriginalSourceRoadCorridor":90,"backwardSourceProgressSteps":0,"minimumMeasuredRadiusM":5.083246246609864,"sweptBodyOutsideGroundM2":0.0,"sweptBodyOutsideAsphaltM2":0.0,"maxLateralAccelerationAt3mps":1.7705221355353995},"geometry":{"type":"LineString","coordinates":[[77.58847595848633,12.981471712294764],[77.58847591559795,12.981472266485357],[77.58847587960408,12.981472821141667],[77.58847585050997,12.981473376182256],[77.5884758283199,12.981473931525622],[77.58847581303714,12.981474487090223],[77.58847580466393,12.981475042794488],[77.58847580320149,12.98147559855682],[77.58847580865005,12.981476154295617],[77.58847582100879,12.98147670992928],[77.5884758402759,12.981477265376226],[77.58847586644858,12.981477820554892],[77.58847589952295,12.981478375383766],[77.58847593949416,12.981478929781382],[77.58847598635636,12.981479483666336],[77.58847604010266,12.981480036957302],[77.58847610072516,12.981480589573037],[77.58847616821498,12.9814811414324],[77.58847624256218,12.981481692454365],[77.58847632375587,12.98148224255802],[77.58849424672076,12.981598664029578],[77.58849433605803,12.981599220982748],[77.58849443241333,12.981599776823911],[77.58849453577211,12.981600331469101],[77.58849464611876,12.98160088483453],[77.5884947634366,12.981601436836604],[77.58849488770792,12.981601987391937],[77.58849501891393,12.981602536417363],[77.58849515703483,12.981603083829942],[77.58849530204974,12.981603629546981],[77.58849545393676,12.981604173486044],[77.58849561267294,12.981604715564963],[77.58849577823432,12.981605255701846],[77.58849595059587,12.9816057938151],[77.58849612973155,12.98160632982344],[77.58849631561431,12.981606863645894],[77.58849650821607,12.981607395201818],[77.58849670750773,12.981607924410916],[77.58849691345918,12.98160845119324],[77.58849712603933,12.981608975469221],[77.58849734521604,12.981609497159653],[77.58849757095622,12.981610016185737],[77.58849780322576,12.981610532469057],[77.58849804198958,12.981611045931627],[77.5884982872116,12.981611556495885],[77.5884985388548,12.981612064084699],[77.58849879688113,12.98161256862139],[77.58849906125162,12.981613070029754],[77.58849933192637,12.981613568234026],[77.58849960886445,12.981614063158963],[77.58849989202405,12.981614554729797],[77.58850018136238,12.981615042872264],[77.58850047683573,12.98161552751263],[77.58850077839949,12.981616008577683],[77.58850108600808,12.981616485994746],[77.58850139961503,12.98161695969171],[77.58850171917298,12.981617429597012],[77.58850204463366,12.981617895639658],[77.58850237594788,12.981618357749264],[77.58850271306562,12.981618815856004],[77.58850305593594,12.98161926989069],[77.58850340450705,12.981619719784728],[77.58850375872629,12.981620165470154],[77.58850411854014,12.981620606879646],[77.58850448389427,12.981621043946522],[77.58850485473347,12.981621476604756],[77.58850523100173,12.981621904788991],[77.58850561264221,12.981622328434545],[77.58850599959725,12.98162274747742],[77.58850639180838,12.981623161854316],[77.5885067892164,12.981623571502631],[77.58850719176122,12.98162397636049],[77.58850759938208,12.981624376366728],[77.58850801201737,12.981624771460924],[77.58850842960479,12.98162516158339],[77.58850885208122,12.981625546675192],[77.58850927938285,12.98162592667816],[77.58850971144514,12.981626301534892],[77.58851014820283,12.981626671188756],[77.58851058958992,12.981627035583914],[77.58851103553974,12.98162739466532],[77.58851148598494,12.981627748378733],[77.58851194085744,12.981628096670711],[77.58851240008858,12.981628439488649],[77.58851286360893,12.981628776780758],[77.5885133313485,12.98162910849608],[77.58851380323662,12.981629434584514],[77.58851427920202,12.981629754996794],[77.5885147591728,12.98163006968452],[77.58851524307643,12.981630378600157],[77.58851573083983,12.981630681697034],[77.5885162223893,12.981630978929367],[77.58851671765062,12.981631270252254],[77.58851721654894,12.981631555621693],[77.58851771900892,12.981631834994566],[77.58851822495463,12.981632108328679],[77.58851873430966,12.981632375582736],[77.58851924699707,12.981632636716368],[77.58851976293938,12.981632891690126],[77.5885202820587,12.98163314046549],[77.58852080427657,12.981633383004885],[77.58852132951412,12.981633619271667],[77.588521857692,12.98163384923015],[77.58852238873042,12.981634072845594],[77.58852292254917,12.981634290084218],[77.58852345906762,12.981634500913202],[77.58852399820469,12.981634705300706],[77.58852453987895,12.98163490321585],[77.58852508400858,12.981635094628738],[77.58852563051138,12.981635279510451],[77.5885261793048,12.981635457833065],[77.58852673030592,12.981635629569638],[77.58852728343152,12.981635794694231],[77.58852783859803,12.981635953181899],[77.5885283957216,12.981636105008695],[77.58852895471806,12.98163625015169],[77.58852951550297,12.981636388588957],[77.58853007799162,12.981636520299581],[77.58853064209903,12.981636645263668],[77.58853120773999,12.981636763462339],[77.58853177482906,12.98163687487774],[77.58853234328056,12.98163697949304],[77.58853291300862,12.981637077292433],[77.58853348392718,12.981637168261152],[77.58853405595,12.981637252385447],[77.58853462899067,12.981637329652614],[77.5885352029626,12.981637400050982],[77.58853577777913,12.98163746356991],[77.58853635335338,12.981637520199811],[77.58853692959842,12.981637569932126],[77.58853750642722,12.981637612759343],[77.58853808375261,12.981637648674992],[77.5885386614874,12.981637677673646],[77.5885392395443,12.981637699750928],[77.58853981783601,12.981637714903503],[77.58854039627516,12.981637723129078],[77.58854097477436,12.981637724426413],[77.58854155324623,12.981637718795312],[77.58854213160339,12.981637706236626],[77.58854270975846,12.981637686752249],[77.58854328762409,12.981637660345127],[77.58854386511302,12.981637627019254],[77.588544442138,12.981637586779653],[77.58854501861185,12.981637539632413],[77.58854559444751,12.981637485584649],[77.58854616955796,12.98163742464453],[77.58854674385636,12.981637356821262],[77.58854731725592,12.981637282125087],[77.58854788967004,12.98163720056729],[77.58854846101224,12.981637112160195],[77.58854903119622,12.981637016917151],[77.58854960013586,12.981636914852553],[77.58855016774518,12.981636805981811],[77.58855073393846,12.981636690321375],[77.58855129863018,12.98163656788872],[77.588551861735,12.981636438702335],[77.58855242316788,12.98163630278174],[77.588552982844,12.981636160147467],[77.58855354067883,12.981636010821061],[77.58855409658808,12.981635854825079],[77.5885546504878,12.98163569218309],[77.58855520229427,12.981635522919658],[77.58855575192419,12.981635347060358],[77.58855629929448,12.981635164631747],[77.5885568443225,12.981634975661393],[77.58855738692588,12.981634780177835],[77.58855792702266,12.981634578210612],[77.58855846453127,12.981634369790223],[77.58855899937049,12.981634154948157],[77.58855953145955,12.98163393371687],[77.58856006071804,12.98163370612978],[77.58856058706604,12.981633472221272],[77.58856111042402,12.981633232026672],[77.58856163071292,12.98163298558227],[77.58856214785415,12.981632732925293],[77.58856266176959,12.981632474093907],[77.58856317238161,12.981632209127218],[77.58856367961306,12.981631938065245],[77.58856418338733,12.981631660948938],[77.58856468362832,12.98163137782016],[77.58856518026045,12.981631088721677],[77.5885656732087,12.981630793697168],[77.58856616239862,12.98163049279119],[77.5885666477563,12.98163018604921],[77.58856712920841,12.981629873517559],[77.58856760668223,12.981629555243451],[77.58856808010565,12.981629231274962],[77.58856854940713,12.981628901661033],[77.58856901451577,12.98162856645146],[77.58856947536134,12.981628225696873],[77.58856993187419,12.981627879448755],[77.58857038398538,12.981627527759409],[77.58857083162661,12.981627170681959],[77.58857127473026,12.981626808270345],[77.58857171322937,12.981626440579321],[77.58857214705773,12.981626067664426],[77.58857257614979,12.981625689581994],[77.58857300044073,12.981625306389141],[77.58857341986645,12.981624918143753],[77.58857383436361,12.981624524904475],[77.58857424386959,12.981624126730713],[77.5885746483225,12.981623723682622],[77.58857504766128,12.98162331582108],[77.58857544182558,12.9816229032077],[77.58857583075587,12.981622485904818],[77.5885762143934,12.981622063975466],[77.5885957040506,12.981600361763167],[77.58859608283137,12.981599934707162],[77.58859645618996,12.9815995031411],[77.58859682406984,12.981599067130349],[77.58859718641527,12.981598626740942],[77.58859754317137,12.981598182039585],[77.58859789428412,12.981597733093631],[77.58859823970033,12.981597279971075],[77.5885985793677,12.981596822740551],[77.58859891323476,12.981596361471306],[77.58859924125095,12.98159589623321],[77.5885995633666,12.981595427096725],[77.58859987953291,12.981594954132907],[77.58860018970199,12.98159447741339],[77.58860049382687,12.98159399701038],[77.5886007918615,12.981593512996637],[77.58860108376071,12.98159302544547],[77.5886013694803,12.981592534430726],[77.58860164897702,12.98159204002677],[77.5886019222085,12.98159154230849],[77.58860218913337,12.981591041351265],[77.58860244971122,12.981590537230971],[77.58860270390255,12.981590030023966],[77.58860295166889,12.98158951980707],[77.5886031929727,12.981589006657558],[77.58860342777743,12.981588490653154],[77.58860365604752,12.98158797187201],[77.5886038777484,12.981587450392706],[77.58860409284647,12.981586926294218],[77.58860430130918,12.981586399655933],[77.58860450310495,12.98158587055761],[77.5886046982032,12.981585339079391],[77.58860488657439,12.98158480530177],[77.58860506818999,12.981584269305595],[77.5886052430225,12.981583731172046],[77.58860541104542,12.981583190982633],[77.58860557223332,12.981582648819169],[77.58860572656177,12.981582104763774],[77.58860587400741,12.981581558898847],[77.5886060145479,12.981581011307064],[77.58860614816197,12.98158046207137],[77.58860627482936,12.981579911274943],[77.5886063945309,12.981579359001218],[77.58860650724844,12.981578805333832],[77.58860661296494,12.981578250356648],[77.58860671166435,12.981577694153726],[77.58860680333176,12.981577136809301],[77.58860688795325,12.981576578407795],[77.58868317342106,12.981050817706477],[77.5886832492144,12.981050271696892],[77.5886833182711,12.981049724839478],[77.58868338058119,12.981049177213151],[77.58868343613568,12.981048628896945],[77.58868348492658,12.98104807996999],[77.58868352694681,12.9810475305115],[77.58868356219034,12.981046980600773],[77.58868359065205,12.981046430317168],[77.58868361232787,12.9810458797401],[77.58868362721464,12.981045328949024],[77.58868363531022,12.981044778023428],[77.58868363661345,12.981044227042817],[77.58868363112414,12.981043676086706],[77.58868361884308,12.981043125234606],[77.58868359977204,12.981042574566015],[77.58868357391377,12.981042024160402],[77.58868290756963,12.981029489277956],[77.58868287420839,12.981028928255611],[77.58868283379556,12.981028367673687],[77.58868278633722,12.981027807616334],[77.5886827318405,12.981027248167631],[77.58868267031357,12.981026689411571],[77.58868260176568,12.981026131432028],[77.58868252620712,12.981025574312772],[77.58868244364922,12.981025018137444],[77.58868235410439,12.981024462989534],[77.58868225758606,12.981023908952386],[77.58868215410871,12.981023356109171],[77.5886820436879,12.981022804542889],[77.58868192634019,12.981022254336343],[77.5886818020832,12.981021705572127],[77.5886816709356,12.98102115833263],[77.58868153291705,12.981020612700005],[77.58868138804829,12.98102006875616],[77.58868123635106,12.981019526582761],[77.58868107784814,12.981018986261194],[77.58868091256332,12.981018447872582],[77.58868074052141,12.981017911497748],[77.58868056174825,12.981017377217208],[77.58868037627066,12.981016845111181],[77.5886801841165,12.98101631525954],[77.58867998531461,12.981015787741834],[77.58867977989483,12.981015262637257],[77.58867956788802,12.981014740024635],[77.58867934932599,12.98101421998243],[77.58867912424155,12.981013702588712],[77.5886788926685,12.981013187921151],[77.58867865464158,12.981012676057011],[77.58867841019656,12.981012167073143],[77.58867815937012,12.98101166104595],[77.58867790219992,12.9810111580514],[77.58867763872455,12.98101065816501],[77.58867736898358,12.981010161461816],[77.58867709301751,12.981009668016396],[77.58867681086777,12.981009177902818],[77.58867652257669,12.981008691194667],[77.58867622818757,12.981008207965008],[77.5886759277446,12.981007728286384],[77.5886756212929,12.981007252230807],[77.58867530887845,12.981006779869748],[77.58867499054817,12.981006311274113],[77.58867466634985,12.981005846514254],[77.58867433633213,12.981005385659943],[77.5886740005446,12.981004928780367],[77.58867365903764,12.98100447594411],[77.58867331186252,12.981004027219155],[77.58867295907136,12.981003582672873],[77.58867260071715,12.98100314237199],[77.58867223685364,12.981002706382615],[77.58867186753548,12.981002274770196],[77.58867149281812,12.981001847599531],[77.58867111275781,12.981001424934748],[77.5886707274116,12.9810010068393],[77.58867033683734,12.981000593375951],[77.58866994109367,12.981000184606774],[77.58866954024,12.980999780593132],[77.58866913433651,12.980999381395682],[77.58866872344413,12.98099898707435],[77.58866830762454,12.980998597688334],[77.58866788694019,12.980998213296093],[77.5886674614542,12.98099783395533],[77.58866703123047,12.980997459722996],[77.58866659633358,12.980997090655269],[77.58866615682881,12.980996726807556],[77.58866571278216,12.980996368234482],[77.58866526426027,12.980996014989874],[77.58866481133049,12.980995667126768],[77.58866435406081,12.980995324697382],[77.58866389251988,12.980994987753123],[77.58866342677699,12.980994656344576],[77.58866295690206,12.980994330521497],[77.5886624829656,12.980994010332791],[77.58866200503881,12.980993695826536],[77.58866152319341,12.980993387049939],[77.58866103750172,12.980993084049361],[77.5886605480367,12.980992786870287],[77.5886600548718,12.980992495557327],[77.58865955808105,12.980992210154223],[77.58865905773905,12.980991930703816],[77.5886585539209,12.980991657248055],[77.58865804670224,12.980991389828],[77.58865753615922,12.980991128483792],[77.58865702236847,12.980990873254663],[77.58865650540714,12.980990624178936],[77.58865598535283,12.980990381293998],[77.58865546228363,12.980990144636312],[77.58865493627803,12.980989914241412],[77.58865440741502,12.980989690143883],[77.588653875774,12.98098947237736],[77.58865334143476,12.980989260974544],[77.58865280447755,12.980989055967168],[77.58865226498294,12.980988857386011],[77.58865172303196,12.980988665260883],[77.58865117870594,12.980988479620628],[77.58865063208661,12.980988300493113],[77.58865008325604,12.980988127905231],[77.5886495322966,12.980987961882894],[77.58864897929102,12.980987802451017],[77.58864842432233,12.980987649633548],[77.58864786747381,12.980987503453417],[77.58864730882908,12.980987363932575],[77.588646748472,12.980987231091964],[77.5886461864867,12.980987104951533],[77.58864562295754,12.98098698553021],[77.58864505796912,12.98098687284593],[77.58864449160626,12.98098676691561],[77.588643923954,12.980986667755147],[77.58864335509752,12.980986575379433],[77.58864278512226,12.98098648980233],[77.58864221411376,12.980986411036689],[77.58864164215775,12.980986339094335],[77.58864106934011,12.980986273986066],[77.58864049574682,12.98098621572166],[77.58863992146398,12.980986164309861],[77.58863934657782,12.980986119758388],[77.58863877117463,12.980986082073928],[77.58863819534082,12.980986051262137],[77.5886376191628,12.98098602732765],[77.5886370427271,12.980986010274048],[77.58863646612024,12.980986000103897],[77.58863588942877,12.980985996818724],[77.5886353127393,12.980986000419023],[77.58863473613837,12.980986010904248],[77.58863415971257,12.980986028272829],[77.58863358354843,12.980986052522162],[77.58863300773243,12.9809860836486],[77.58863243235102,12.980986121647476],[77.5886318574906,12.980986166513079],[77.58863128323743,12.980986218238678],[77.58863070967776,12.98098627681651],[77.58863013689766,12.980986342237774],[77.58862956498315,12.980986414492657],[77.58862899402007,12.9809864935703],[77.58862842409414,12.980986579458845],[77.58862785529092,12.980986672145388],[77.5886272876958,12.98098677161602],[77.58856081279366,12.980998831424364],[77.5885602439759,12.98099893815181],[77.58855967654914,12.980999051692596],[77.5885591105993,12.980999172029529],[77.58855854621214,12.98099929914438],[77.58855798347312,12.980999433017896],[77.58855742246747,12.980999573629797],[77.58855686328019,12.98099972095879],[77.58855630599594,12.980999874982558],[77.58855575069914,12.981000035677775],[77.58855519747391,12.981000203020095],[77.58855464640403,12.98100037698418],[77.58855409757297,12.981000557543677],[77.58855355106385,12.981000744671237],[77.58855300695947,12.981000938338516],[77.58855246534222,12.981001138516188],[77.58855192629413,12.981001345173924],[77.58855138989686,12.981001558280429],[77.58855085623165,12.981001777803423],[77.58855032537933,12.981002003709657],[77.58854979742031,12.981002235964915],[77.58854927243455,12.98100247453402],[77.58854875050156,12.981002719380832],[77.5885482317004,12.981002970468273],[77.58854771610964,12.981003227758308],[77.58854720380741,12.981003491211974],[77.58854669487125,12.981003760789356],[77.58854618937828,12.981004036449628],[77.58854568740506,12.981004318151045],[77.58854518902761,12.98100460585093],[77.58854469432143,12.981004899505711],[77.58854420336142,12.98100519907091],[77.58854371622198,12.981005504501155],[77.58854323297687,12.981005815750184],[77.58854275369929,12.981006132770851],[77.58854227846183,12.981006455515143],[77.58854180733648,12.981006783934179],[77.58854134039458,12.981007117978207],[77.58854087770688,12.98100745759664],[77.58854041934343,12.981007802738034],[77.58853996537368,12.981008153350116],[77.58853951586639,12.981008509379777],[77.58853907088961,12.981008870773096],[77.58853863051078,12.981009237475332],[77.58853819479657,12.981009609430943],[77.588537763813,12.981009986583597],[77.58853733762533,12.981010368876163],[77.58853691629811,12.981010756250743],[77.58853649989516,12.981011148648658],[77.58853608847956,12.981011546010482],[77.5885356821136,12.981011948276024],[77.58853528085886,12.981012355384355],[77.5885348847761,12.981012767273816],[77.5885344939253,12.981013183882022],[77.58853410836568,12.981013605145868],[77.58853372815562,12.981014031001553],[77.58853335335272,12.981014461384571],[77.58853298401375,12.981014896229743],[77.58853262019464,12.981015335471195],[77.5885322619505,12.981015779042409],[77.5885319093356,12.98101622687619],[77.58853156240333,12.981016678904714],[77.58853122120627,12.981017135059513],[77.58853088579605,12.981017595271503],[77.58853055622352,12.981018059470971],[77.58853023253856,12.981018527587612],[77.58852991479021,12.981018999550521],[77.58852960302661,12.981019475288218],[77.58852929729497,12.98101995472864],[77.58852899764159,12.981020437799176],[77.58852870411187,12.981020924426653],[77.58852841675025,12.98102141453737],[77.58852813560028,12.981021908057087],[77.58852786070453,12.981022404911064],[77.58852759210463,12.981022905024036],[77.58852732984127,12.98102340832026],[77.58852707395418,12.981023914723508],[77.58852682448212,12.98102442415707],[77.58852658146284,12.981024936543792],[77.58852634493319,12.981025451806063],[77.58852611492898,12.981025969865847],[77.58852589148505,12.981026490644666],[77.58852567463524,12.981027014063653],[77.58852546441238,12.98102754004352],[77.58852526084834,12.981028068504608],[77.58852506397393,12.98102859936687],[77.58852487381898,12.981029132549901],[77.5885246904123,12.981029667972944],[77.58852451378165,12.981030205554903],[77.5885243439538,12.981030745214355],[77.58852418095445,12.981031286869559],[77.58852402480831,12.981031830438475],[77.58852387553901,12.981032375838774],[77.58852373316918,12.981032922987847],[77.58852359772038,12.981033471802823],[77.58852346921311,12.981034022200575],[77.58852334766686,12.98103457409774],[77.58852323310002,12.981035127410722],[77.58852312552995,12.981035682055717],[77.58852302497293,12.98103623794872],[77.5885229314442,12.981036795005531],[77.58852284495794,12.98103735314178],[77.58852276552722,12.981037912272921],[77.5885226931641,12.981038472314276],[77.58852262787951,12.981039033181016],[77.5884789745053,12.981435854104951],[77.58847891443341,12.981436435042975],[77.58847890450485,12.981436537599492],[77.5884788520272,12.981437119235618],[77.58847595848633,12.981471712294764]]}}]}